METOP-B                 
1 38771U 12049A   26073.58354055  .00000126  00000+0  77649-4 0  9990
2 38771  98.6632 126.9191 0001312 239.8727 120.2320 14.21446444699824
SARAL                   
1 39086U 13009A   26073.55919363  .00000151  00000+0  71273-4 0  9998
2 39086  98.5559 261.3146 0001749 167.2628 192.8601 14.32830463682057
METOP-C                 
1 43689U 18087A   26073.60774004  .00000132  00000+0  80259-4 0  9993
2 43689  98.6755 134.8969 0002195  93.1048 267.0381 14.21498793381393
OTB-3-GAZELLE           
1 54023U 22127A   26073.52644752  .00000209  00000+0  75913-4 0  9990
2 54023  98.3913  66.6922 0014264 112.2152 248.0553 14.42637965180712
EOS-6 (OCEANSAT-3)      
1 54361U 22158A   26073.63592491  .00000405  00000+0  12327-3 0  9990
2 54361  98.3482 173.1159 0000447 168.2635 191.8568 14.47010300174165
KINEIS-1B               
1 60079U 24114A   26073.56940699  .00001414  00000+0  19194-3 0  9996
2 60079  97.9921  98.1829 0003579  62.9620 297.1957 14.80433160 93403
KINEIS-1C               
1 60081U 24114C   26073.60317490  .00001312  00000+0  17866-3 0  9992
2 60081  97.9939  98.0429 0002377 110.8930 249.2536 14.80422288 93389
KINEIS-1D               
1 60082U 24114D   26073.62220479  .00000927  00000+0  14167-3 0  9997
2 60082  97.9965  94.7659 0002662 115.8986 244.2498 14.76123912 93176
KINEIS-1E               
1 60083U 24114E   26073.61999810  .00003273  00000+0  43479-3 0  9994
2 60083  97.9899  98.1391 0002421  83.4703 276.6784 14.80454731 93396
KINEIS-1A               
1 60084U 24114F   26073.58616066  .00001693  00000+0  22833-3 0  9995
2 60084  97.9903  98.2288 0004761  82.5204 277.6548 14.80459554 93391
KINEIS-3C               
1 61220U 24172A   26073.19833573  .00002539  00000+0  40919-3 0  9998
2 61220  98.0289 164.1450 0003460  91.3230 268.8374 14.72342688 79099
KINEIS-3D               
1 61221U 24172B   26073.53147022  .00002826  00000+0  45436-3 0  9992
2 61221  98.0292 164.4855 0002566  98.7685 261.3813 14.72349311 79420
KINEIS-3E               
1 61222U 24172C   26073.51448013  .00002822  00000+0  45398-3 0  9998
2 61222  98.0288 164.4632 0001631 101.5467 258.5924 14.72336377 79421
KINEIS-3A               
1 61223U 24172D   26073.56538799  .00002693  00000+0  43424-3 0  9999
2 61223  98.0335 164.6029 0002540  62.4352 297.7113 14.72256912 78852
KINEIS-3B               
1 61224U 24172E   26073.61651067  .00002771  00000+0  44598-3 0  9990
2 61224  98.0278 164.6852 0003151  49.9536 310.1948 14.72318241 79431
KINEIS-5C               
1 62081U 24219A   26073.72872647  .00001208  00000+0  19848-3 0  9999
2 62081  97.9589 235.0792 0002359 123.2851 236.8583 14.72379659 69851
KINEIS-5D               
1 62082U 24219B   26073.62690378  .00001211  00000+0  19909-3 0  9990
2 62082  97.9508 234.9536 0001734 135.6321 224.5026 14.72358620 69842
KINEIS-5E               
1 62083U 24219C   26073.57568860  .00001412  00000+0  23088-3 0  9991
2 62083  97.9498 235.0934 0004144 131.6435 228.5129 14.72356080 69841
KINEIS-5A               
1 62084U 24219D   26073.60832450  .00001025  00000+0  17038-3 0  9993
2 62084  97.9691 235.2446 0002988 180.6105 179.5099 14.72200590 69855
KINEIS-5B               
1 62085U 24219E   26073.62024388  .00001990  00000+0  28240-3 0  9997
2 62085  97.9950 238.0676 0001817 176.7688 183.3534 14.78094090 70033
KINEIS-2C               
1 62929U 25028B   26073.62035430  .00001547  00000+0  25246-3 0  9994
2 62929  98.0265 128.7256 0000631  28.3144 331.8097 14.72333242 58693
KINEIS-2D               
1 62930U 25028C   26073.38476558  .00002001  00000+0  30227-3 0  9990
2 62930  97.9405 127.6294 0004371 135.1638 224.9925 14.75363778 58736
KINEIS-2E               
1 62931U 25028D   26073.37273381  .00001658  00000+0  24394-3 0  9994
2 62931  97.9072 126.9939 0002007 106.4995 253.6436 14.76732730 58786
KINEIS-2A               
1 62932U 25028E   26073.58155348  .00001514  00000+0  24853-3 0  9991
2 62932  98.0812 129.0578 0002756 184.5263 175.5920 14.72115688 58682
KINEIS-2B               
1 62934U 25028G   26073.39503326  .00001489  00000+0  23880-3 0  9995
2 62934  97.9784 127.9451 0004963  97.9707 262.2065 14.73130849 58703
KINEIS-4E               
1 63300U 25056A   26072.28835479  .00000951  00000+0  15833-3 0  9990
2 63300  97.9879 198.5336 0000922 169.2110 190.9117 14.72266799 53011
KINEIS-4C               
1 63301U 25056B   26073.59213701  .00002695  00000+0  43415-3 0  9998
2 63301  97.9936 199.9827 0000412 132.1949 227.9294 14.72307678 53210
KINEIS-4D               
1 63302U 25056C   26073.59710235  .00002724  00000+0  43844-3 0  9992
2 63302  97.9923 199.9643 0000660 227.5841 132.5311 14.72324257 53211
KINEIS-4A               
1 63303U 25056D   26073.56222009  .00002806  00000+0  45112-3 0  9998
2 63303  97.9942 199.8586 0002049 214.5023 145.6052 14.72350565 53206
KINEIS-4B               
1 63304U 25056E   26073.61334068  .00002565  00000+0  41324-3 0  9997
2 63304  97.9939 199.9542 0002838 175.1466 184.9770 14.72336857 53206
